STARLINK-35469          
1 65863U 25223K   25299.50001156 -.01281507  00000+0 -34408-1 0  9992
2 65863  53.1591 200.1749 0001496 116.4046 201.0748 15.40545545  4890
STARLINK-35471          
1 65864U 25223L   25299.43729691  .00075686  00000+0  13548-2 0  9995
2 65864  53.1585 200.4096 0001277  89.6289 270.4866 15.49329051  3610
STARLINK-35475          
1 65865U 25223M   25299.43695309  .00069740  00000+0  12500-2 0  9995
2 65865  53.1595 200.4076 0001331  73.7139 286.4017 15.49327767  3616
STARLINK-35312          
1 65866U 25223N   25299.43660903  .00055271  00000+0  99423-3 0  9992
2 65866  53.1587 200.4051 0001178  89.7752 270.3392 15.49325235  3614
STARLINK-35456          
1 65867U 25223P   25299.43626220  .00064274  00000+0  11532-2 0  9994
2 65867  53.1589 200.4026 0000480 125.5612 234.5442 15.49335197  3614
STARLINK-35450          
1 65868U 25223Q   25299.50001156 -.02031295  00000+0 -51207-1 0  9991
2 65868  53.1590 200.1272 0001108 123.3456 217.9737 15.42883014  4899
STARLINK-35441          
1 65869U 25223R   25299.50001156  .00059911  00000+0  14994-2 0  9996
2 65869  53.1592 200.1688 0001239  77.2639 242.5614 15.39550382  4891
STARLINK-35433          
1 65870U 25223S   25299.30621978  .00062059  00000+0  11142-2 0  9995
2 65870  53.1590 201.0123 0001494  86.6416 273.4764 15.49329454  3607
STARLINK-35465          
1 65871U 25223T   25299.50001156 -.02042669  00000+0 -47150-1 0  9994
2 65871  53.1588 200.0936 0000867 108.9133 248.7523 15.45477575  4897
STARLINK-34108          
1 65872U 25223U   25299.43420505  .00056194  00000+0  10108-2 0  9998
2 65872  53.1591 200.3886 0001123  93.4201 266.6937 15.49320201  3613
STARLINK-35423          
1 65873U 25223V   25299.43385845  .00071924  00000+0  12880-2 0  9993
2 65873  53.1596 200.3863 0000554  98.6584 261.4488 15.49338856  3611
STARLINK-35425          
1 65874U 25223W   25299.43454601  .00051728  00000+0  93146-3 0  9996
2 65874  53.1593 200.3906 0000798 105.1942 254.9156 15.49324633  3616
