CCSDS_OMM_VERS = 2.0
CREATION_DATE  = 
ORIGINATOR     = 

OBJECT_NAME    = STARLINK-35469
OBJECT_ID      = 2025-223K
CENTER_NAME    = EARTH
REF_FRAME      = TEME
TIME_SYSTEM    = UTC
MEAN_ELEMENT_THEORY = SGP/SGP4

EPOCH          = 2025-10-26T12:00:00.998784
MEAN_MOTION    = 15.40545545
ECCENTRICITY   = .0001496
INCLINATION    = 53.1591
RA_OF_ASC_NODE = 200.1749
ARG_OF_PERICENTER = 116.4046
MEAN_ANOMALY   = 201.0748

EPHEMERIS_TYPE = 0
CLASSIFICATION_TYPE = U
NORAD_CAT_ID   = 65863
ELEMENT_SET_NO = 999
REV_AT_EPOCH   = 489
BSTAR          = -.34408E-1
MEAN_MOTION_DOT = -.1281507E-1
MEAN_MOTION_DDOT = 0

CCSDS_OMM_VERS = 2.0
CREATION_DATE  = 
ORIGINATOR     = 

OBJECT_NAME    = STARLINK-35471
OBJECT_ID      = 2025-223L
CENTER_NAME    = EARTH
REF_FRAME      = TEME
TIME_SYSTEM    = UTC
MEAN_ELEMENT_THEORY = SGP/SGP4

EPOCH          = 2025-10-26T10:29:42.453024
MEAN_MOTION    = 15.49329051
ECCENTRICITY   = .0001277
INCLINATION    = 53.1585
RA_OF_ASC_NODE = 200.4096
ARG_OF_PERICENTER = 89.6289
MEAN_ANOMALY   = 270.4866

EPHEMERIS_TYPE = 0
CLASSIFICATION_TYPE = U
NORAD_CAT_ID   = 65864
ELEMENT_SET_NO = 999
REV_AT_EPOCH   = 361
BSTAR          = .13548E-2
MEAN_MOTION_DOT = .75686E-3
MEAN_MOTION_DDOT = 0

CCSDS_OMM_VERS = 2.0
CREATION_DATE  = 
ORIGINATOR     = 

OBJECT_NAME    = STARLINK-35475
OBJECT_ID      = 2025-223M
CENTER_NAME    = EARTH
REF_FRAME      = TEME
TIME_SYSTEM    = UTC
MEAN_ELEMENT_THEORY = SGP/SGP4

EPOCH          = 2025-10-26T10:29:12.746976
MEAN_MOTION    = 15.49327767
ECCENTRICITY   = .0001331
INCLINATION    = 53.1595
RA_OF_ASC_NODE = 200.4076
ARG_OF_PERICENTER = 73.7139
MEAN_ANOMALY   = 286.4017

EPHEMERIS_TYPE = 0
CLASSIFICATION_TYPE = U
NORAD_CAT_ID   = 65865
ELEMENT_SET_NO = 999
REV_AT_EPOCH   = 361
BSTAR          = .125E-2
MEAN_MOTION_DOT = .6974E-3
MEAN_MOTION_DDOT = 0

CCSDS_OMM_VERS = 2.0
CREATION_DATE  = 
ORIGINATOR     = 

OBJECT_NAME    = STARLINK-35312
OBJECT_ID      = 2025-223N
CENTER_NAME    = EARTH
REF_FRAME      = TEME
TIME_SYSTEM    = UTC
MEAN_ELEMENT_THEORY = SGP/SGP4

EPOCH          = 2025-10-26T10:28:43.020192
MEAN_MOTION    = 15.49325235
ECCENTRICITY   = .0001178
INCLINATION    = 53.1587
RA_OF_ASC_NODE = 200.4051
ARG_OF_PERICENTER = 89.7752
MEAN_ANOMALY   = 270.3392

EPHEMERIS_TYPE = 0
CLASSIFICATION_TYPE = U
NORAD_CAT_ID   = 65866
ELEMENT_SET_NO = 999
REV_AT_EPOCH   = 361
BSTAR          = .99423E-3
MEAN_MOTION_DOT = .55271E-3
MEAN_MOTION_DDOT = 0

CCSDS_OMM_VERS = 2.0
CREATION_DATE  = 
ORIGINATOR     = 

OBJECT_NAME    = STARLINK-35456
OBJECT_ID      = 2025-223P
CENTER_NAME    = EARTH
REF_FRAME      = TEME
TIME_SYSTEM    = UTC
MEAN_ELEMENT_THEORY = SGP/SGP4

EPOCH          = 2025-10-26T10:28:13.054080
MEAN_MOTION    = 15.49335197
ECCENTRICITY   = .000048
INCLINATION    = 53.1589
RA_OF_ASC_NODE = 200.4026
ARG_OF_PERICENTER = 125.5612
MEAN_ANOMALY   = 234.5442

EPHEMERIS_TYPE = 0
CLASSIFICATION_TYPE = U
NORAD_CAT_ID   = 65867
ELEMENT_SET_NO = 999
REV_AT_EPOCH   = 361
BSTAR          = .11532E-2
MEAN_MOTION_DOT = .64274E-3
MEAN_MOTION_DDOT = 0

CCSDS_OMM_VERS = 2.0
CREATION_DATE  = 
ORIGINATOR     = 

OBJECT_NAME    = STARLINK-35450
OBJECT_ID      = 2025-223Q
CENTER_NAME    = EARTH
REF_FRAME      = TEME
TIME_SYSTEM    = UTC
MEAN_ELEMENT_THEORY = SGP/SGP4

EPOCH          = 2025-10-26T12:00:00.998784
MEAN_MOTION    = 15.42883014
ECCENTRICITY   = .0001108
INCLINATION    = 53.1590
RA_OF_ASC_NODE = 200.1272
ARG_OF_PERICENTER = 123.3456
MEAN_ANOMALY   = 217.9737

EPHEMERIS_TYPE = 0
CLASSIFICATION_TYPE = U
NORAD_CAT_ID   = 65868
ELEMENT_SET_NO = 999
REV_AT_EPOCH   = 489
BSTAR          = -.51207E-1
MEAN_MOTION_DOT = -.2031295E-1
MEAN_MOTION_DDOT = 0

CCSDS_OMM_VERS = 2.0
CREATION_DATE  = 
ORIGINATOR     = 

OBJECT_NAME    = STARLINK-35441
OBJECT_ID      = 2025-223R
CENTER_NAME    = EARTH
REF_FRAME      = TEME
TIME_SYSTEM    = UTC
MEAN_ELEMENT_THEORY = SGP/SGP4

EPOCH          = 2025-10-26T12:00:00.998784
MEAN_MOTION    = 15.39550382
ECCENTRICITY   = .0001239
INCLINATION    = 53.1592
RA_OF_ASC_NODE = 200.1688
ARG_OF_PERICENTER = 77.2639
MEAN_ANOMALY   = 242.5614

EPHEMERIS_TYPE = 0
CLASSIFICATION_TYPE = U
NORAD_CAT_ID   = 65869
ELEMENT_SET_NO = 999
REV_AT_EPOCH   = 489
BSTAR          = .14994E-2
MEAN_MOTION_DOT = .59911E-3
MEAN_MOTION_DDOT = 0

CCSDS_OMM_VERS = 2.0
CREATION_DATE  = 
ORIGINATOR     = 

OBJECT_NAME    = STARLINK-35433
OBJECT_ID      = 2025-223S
CENTER_NAME    = EARTH
REF_FRAME      = TEME
TIME_SYSTEM    = UTC
MEAN_ELEMENT_THEORY = SGP/SGP4

EPOCH          = 2025-10-26T07:20:57.388992
MEAN_MOTION    = 15.49329454
ECCENTRICITY   = .0001494
INCLINATION    = 53.1590
RA_OF_ASC_NODE = 201.0123
ARG_OF_PERICENTER = 86.6416
MEAN_ANOMALY   = 273.4764

EPHEMERIS_TYPE = 0
CLASSIFICATION_TYPE = U
NORAD_CAT_ID   = 65870
ELEMENT_SET_NO = 999
REV_AT_EPOCH   = 360
BSTAR          = .11142E-2
MEAN_MOTION_DOT = .62059E-3
MEAN_MOTION_DDOT = 0

CCSDS_OMM_VERS = 2.0
CREATION_DATE  = 
ORIGINATOR     = 

OBJECT_NAME    = STARLINK-35465
OBJECT_ID      = 2025-223T
CENTER_NAME    = EARTH
REF_FRAME      = TEME
TIME_SYSTEM    = UTC
MEAN_ELEMENT_THEORY = SGP/SGP4

EPOCH          = 2025-10-26T12:00:00.998784
MEAN_MOTION    = 15.45477575
ECCENTRICITY   = .0000867
INCLINATION    = 53.1588
RA_OF_ASC_NODE = 200.0936
ARG_OF_PERICENTER = 108.9133
MEAN_ANOMALY   = 248.7523

EPHEMERIS_TYPE = 0
CLASSIFICATION_TYPE = U
NORAD_CAT_ID   = 65871
ELEMENT_SET_NO = 999
REV_AT_EPOCH   = 489
BSTAR          = -.4715E-1
MEAN_MOTION_DOT = -.2042669E-1
MEAN_MOTION_DDOT = 0

CCSDS_OMM_VERS = 2.0
CREATION_DATE  = 
ORIGINATOR     = 

OBJECT_NAME    = STARLINK-34108
OBJECT_ID      = 2025-223U
CENTER_NAME    = EARTH
REF_FRAME      = TEME
TIME_SYSTEM    = UTC
MEAN_ELEMENT_THEORY = SGP/SGP4

EPOCH          = 2025-10-26T10:25:15.316320
MEAN_MOTION    = 15.49320201
ECCENTRICITY   = .0001123
INCLINATION    = 53.1591
RA_OF_ASC_NODE = 200.3886
ARG_OF_PERICENTER = 93.4201
MEAN_ANOMALY   = 266.6937

EPHEMERIS_TYPE = 0
CLASSIFICATION_TYPE = U
NORAD_CAT_ID   = 65872
ELEMENT_SET_NO = 999
REV_AT_EPOCH   = 361
BSTAR          = .10108E-2
MEAN_MOTION_DOT = .56194E-3
MEAN_MOTION_DDOT = 0

CCSDS_OMM_VERS = 2.0
CREATION_DATE  = 
ORIGINATOR     = 

OBJECT_NAME    = STARLINK-35423
OBJECT_ID      = 2025-223V
CENTER_NAME    = EARTH
REF_FRAME      = TEME
TIME_SYSTEM    = UTC
MEAN_ELEMENT_THEORY = SGP/SGP4

EPOCH          = 2025-10-26T10:24:45.370080
MEAN_MOTION    = 15.49338856
ECCENTRICITY   = .0000554
INCLINATION    = 53.1596
RA_OF_ASC_NODE = 200.3863
ARG_OF_PERICENTER = 98.6584
MEAN_ANOMALY   = 261.4488

EPHEMERIS_TYPE = 0
CLASSIFICATION_TYPE = U
NORAD_CAT_ID   = 65873
ELEMENT_SET_NO = 999
REV_AT_EPOCH   = 361
BSTAR          = .1288E-2
MEAN_MOTION_DOT = .71924E-3
MEAN_MOTION_DDOT = 0

CCSDS_OMM_VERS = 2.0
CREATION_DATE  = 
ORIGINATOR     = 

OBJECT_NAME    = STARLINK-35425
OBJECT_ID      = 2025-223W
CENTER_NAME    = EARTH
REF_FRAME      = TEME
TIME_SYSTEM    = UTC
MEAN_ELEMENT_THEORY = SGP/SGP4

EPOCH          = 2025-10-26T10:25:44.775264
MEAN_MOTION    = 15.49324633
ECCENTRICITY   = .0000798
INCLINATION    = 53.1593
RA_OF_ASC_NODE = 200.3906
ARG_OF_PERICENTER = 105.1942
MEAN_ANOMALY   = 254.9156

EPHEMERIS_TYPE = 0
CLASSIFICATION_TYPE = U
NORAD_CAT_ID   = 65874
ELEMENT_SET_NO = 999
REV_AT_EPOCH   = 361
BSTAR          = .93146E-3
MEAN_MOTION_DOT = .51728E-3
MEAN_MOTION_DDOT = 0

